{"type": "FeatureCollection", "features": [ {"type": "Feature", "properties": {"norad_id": 43010, "name": "FENGYUN 3D", "group": "weather", "lat": -39.55463645480221, "lon": 118.64217435595674, "alt_km": 832.3927740931076, "timestamp": "2025-12-05T22:40:48.202652+00:00", "meta": {"OBJECT_NAME": "FENGYUN 3D", "OBJECT_ID": "2017-072A", "EPOCH": "2025-12-05T06:25:24.579840", "MEAN_MOTION": 14.19680503, "ECCENTRICITY": 6.713e-05, "INCLINATION": 98.9883, "RA_OF_ASC_NODE": 305.4664, "ARG_OF_PERICENTER": 209.8252, "MEAN_ANOMALY": 150.2885, "EPHEMERIS_TYPE": 0, "CLASSIFICATION_TYPE": "U", "NORAD_CAT_ID": 43010, "ELEMENT_SET_NO": 999, "REV_AT_EPOCH": 41747, "BSTAR": 0.00012140211, "MEAN_MOTION_DOT": 2.11e-06, "MEAN_MOTION_DDOT": 0}, "tle": {"line1": "1 43010U 17072A   25339.26764560  .00000211  00000+0  12140-3 0  9997", "line2": "2 43010  98.9883 305.4664 0000671 209.8252 150.2885 14.19680503417474"}}, "geometry": {"type": "Point", "coordinates": [118.64217435595674, -39.55463645480221]}}, {"type": "Feature", "properties": {"norad_id": 43013, "name": "NOAA 20 (JPSS-1)", "group": "weather", "lat": 16.05431592798705, "lon": -86.22651664310052, "alt_km": 827.3026148113722, "timestamp": "2025-12-05T22:40:48.202677+00:00", "meta": {"OBJECT_NAME": "NOAA 20 (JPSS-1)", "OBJECT_ID": "2017-073A", "EPOCH": "2025-12-05T07:22:43.662720", "MEAN_MOTION": 14.19522657, "ECCENTRICITY": 0.00020966, "INCLINATION": 98.7588, "RA_OF_ASC_NODE": 275.6859, "ARG_OF_PERICENTER": 97.7509, "MEAN_ANOMALY": 262.3906, "EPHEMERIS_TYPE": 0, "CLASSIFICATION_TYPE": "U", "NORAD_CAT_ID": 43013, "ELEMENT_SET_NO": 999, "REV_AT_EPOCH": 41696, "BSTAR": 0.00010909733, "MEAN_MOTION_DOT": 1.86e-06, "MEAN_MOTION_DDOT": 0}, "tle": {"line1": "1 43013U 17073A   25339.30744980  .00000186  00000+0  10910-3 0  9994", "line2": "2 43013  98.7588 275.6859 0002096  97.7509 262.3906 14.19522657416960"}}, "geometry": {"type": "Point", "coordinates": [-86.22651664310052, 16.05431592798705]}}, {"type": "Feature", "properties": {"norad_id": 43226, "name": "GOES 17", "group": "weather", "lat": -0.37027815120732205, "lon": -34.28662021712715, "alt_km": 35777.634612430964, "timestamp": "2025-12-05T22:40:48.202690+00:00", "meta": {"OBJECT_NAME": "GOES 17", "OBJECT_ID": "2018-022A", "EPOCH": "2025-12-05T03:45:38.745216", "MEAN_MOTION": 1.00271075, "ECCENTRICITY": 0.00035046, "INCLINATION": 0.439, "RA_OF_ASC_NODE": 89.2834, "ARG_OF_PERICENTER": 182.6561, "MEAN_ANOMALY": 129.1913, "EPHEMERIS_TYPE": 0, "CLASSIFICATION_TYPE": "U", "NORAD_CAT_ID": 43226, "ELEMENT_SET_NO": 999, "REV_AT_EPOCH": 2847, "BSTAR": 0, "MEAN_MOTION_DOT": -1.7e-06, "MEAN_MOTION_DDOT": 0}, "tle": {"line1": "1 43226U 18022A   25339.15669844 -.00000170  00000+0  00000+0 0  9992", "line2": "2 43226   0.4390  89.2834 0003504 182.6561 129.1913  1.00271075 28470"}}, "geometry": {"type": "Point", "coordinates": [-34.28662021712715, -0.37027815120732205]}}, {"type": "Feature", "properties": {"norad_id": 43491, "name": "FENGYUN 2H", "group": "weather", "lat": 2.035003916494964, "lon": 134.48627119583475, "alt_km": 35790.39780664441, "timestamp": "2025-12-05T22:40:48.202702+00:00", "meta": {"OBJECT_NAME": "FENGYUN 2H", "OBJECT_ID": "2018-050A", "EPOCH": "2025-12-05T02:05:25.537632", "MEAN_MOTION": 1.00271291, "ECCENTRICITY": 0.0002934, "INCLINATION": 2.5298, "RA_OF_ASC_NODE": 81.414, "ARG_OF_PERICENTER": 163.8161, "MEAN_ANOMALY": 299.6365, "EPHEMERIS_TYPE": 0, "CLASSIFICATION_TYPE": "U", "NORAD_CAT_ID": 43491, "ELEMENT_SET_NO": 999, "REV_AT_EPOCH": 2749, "BSTAR": 0, "MEAN_MOTION_DOT": -1.19e-06, "MEAN_MOTION_DDOT": 0}, "tle": {"line1": "1 43491U 18050A   25339.08710113 -.00000119  00000+0  00000+0 0  9998", "line2": "2 43491   2.5298  81.4140 0002934 163.8161 299.6365  1.00271291 27496"}}, "geometry": {"type": "Point", "coordinates": [134.48627119583475, 2.035003916494964]}}, {"type": "Feature", "properties": {"norad_id": 43689, "name": "METOP-C", "group": "weather", "lat": 68.998563342832, "lon": -118.69219420111646, "alt_km": 812.8734503022024, "timestamp": "2025-12-05T22:40:48.202714+00:00", "meta": {"OBJECT_NAME": "METOP-C", "OBJECT_ID": "2018-087A", "EPOCH": "2025-12-05T06:57:53.389728", "MEAN_MOTION": 14.21507581, "ECCENTRICITY": 0.0001638, "INCLINATION": 98.694, "RA_OF_ASC_NODE": 37.1736, "ARG_OF_PERICENTER": 54.7491, "MEAN_ANOMALY": 305.384, "EPHEMERIS_TYPE": 0, "CLASSIFICATION_TYPE": "U", "NORAD_CAT_ID": 43689, "ELEMENT_SET_NO": 999, "REV_AT_EPOCH": 36728, "BSTAR": 0.00015581161, "MEAN_MOTION_DOT": 2.97e-06, "MEAN_MOTION_DDOT": 0}, "tle": {"line1": "1 43689U 18087A   25339.29020127  .00000297  00000+0  15581-3 0  9999", "line2": "2 43689  98.6940  37.1736 0001638  54.7491 305.3840 14.21507581367286"}}, "geometry": {"type": "Point", "coordinates": [-118.69219420111646, 68.998563342832]}}, {"type": "Feature", "properties": {"norad_id": 43823, "name": "GEO-KOMPSAT-2A", "group": "weather", "lat": 0.03796625448283088, "lon": -176.55461023171398, "alt_km": 35784.332614870975, "timestamp": "2025-12-05T22:40:48.202727+00:00", "meta": {"OBJECT_NAME": "GEO-KOMPSAT-2A", "OBJECT_ID": "2018-100A", "EPOCH": "2025-12-05T05:44:49.515072", "MEAN_MOTION": 1.00271967, "ECCENTRICITY": 4.286e-05, "INCLINATION": 0.0604, "RA_OF_ASC_NODE": 120.2174, "ARG_OF_PERICENTER": 62.8898, "MEAN_ANOMALY": 105.6625, "EPHEMERIS_TYPE": 0, "CLASSIFICATION_TYPE": "U", "NORAD_CAT_ID": 43823, "ELEMENT_SET_NO": 999, "REV_AT_EPOCH": 2568, "BSTAR": 0, "MEAN_MOTION_DOT": -3.32e-06, "MEAN_MOTION_DDOT": 0}, "tle": {"line1": "1 43823U 18100A   25339.23946198 -.00000332  00000+0  00000+0 0  9991", "line2": "2 43823   0.0604 120.2174 0000428  62.8898 105.6625  1.00271967 25683"}}, "geometry": {"type": "Point", "coordinates": [-176.55461023171398, 0.03796625448283088]}}, {"type": "Feature", "properties": {"norad_id": 44387, "name": "METEOR-M2 2", "group": "weather", "lat": 63.543418160908864, "lon": 157.93688428470386, "alt_km": 804.1670658599442, "timestamp": "2025-12-05T22:40:48.202738+00:00", "meta": {"OBJECT_NAME": "METEOR-M2 2", "OBJECT_ID": "2019-038A", "EPOCH": "2025-12-05T06:58:05.219616", "MEAN_MOTION": 14.24286605, "ECCENTRICITY": 9.798e-05, "INCLINATION": 98.8965, "RA_OF_ASC_NODE": 318.9283, "ARG_OF_PERICENTER": 162.8835, "MEAN_ANOMALY": 197.2377, "EPHEMERIS_TYPE": 0, "CLASSIFICATION_TYPE": "U", "NORAD_CAT_ID": 44387, "ELEMENT_SET_NO": 999, "REV_AT_EPOCH": 33369, "BSTAR": 0.00015973332, "MEAN_MOTION_DOT": 3.23e-06, "MEAN_MOTION_DDOT": 0}, "tle": {"line1": "1 44387U 19038A   25339.29033819  .00000323  00000+0  15973-3 0  9999", "line2": "2 44387  98.8965 318.9283 0000979 162.8835 197.2377 14.24286605333693"}}, "geometry": {"type": "Point", "coordinates": [157.93688428470386, 63.543418160908864]}}, {"type": "Feature", "properties": {"norad_id": 47719, "name": "ARKTIKA-M 1", "group": "weather", "lat": 55.88559911559676, "lon": -143.3007345715228, "alt_km": 31637.387068576518, "timestamp": "2025-12-05T22:40:48.202759+00:00", "meta": {"OBJECT_NAME": "ARKTIKA-M 1", "OBJECT_ID": "2021-016A", "EPOCH": "2025-12-01T02:41:41.634816", "MEAN_MOTION": 2.00613156, "ECCENTRICITY": 0.71974708, "INCLINATION": 63.1756, "RA_OF_ASC_NODE": 85.6045, "ARG_OF_PERICENTER": 269.084, "MEAN_ANOMALY": 15.7076, "EPHEMERIS_TYPE": 0, "CLASSIFICATION_TYPE": "U", "NORAD_CAT_ID": 47719, "ELEMENT_SET_NO": 999, "REV_AT_EPOCH": 3481, "BSTAR": 0, "MEAN_MOTION_DOT": -1.2e-07, "MEAN_MOTION_DDOT": 0}, "tle": {"line1": "1 47719U 21016A   25335.11228744 -.00000012  00000+0  00000+0 0  9997", "line2": "2 47719  63.1756  85.6045 7197470 269.0840  15.7076  2.00613156 34816"}}, "geometry": {"type": "Point", "coordinates": [-143.3007345715228, 55.88559911559676]}}, {"type": "Feature", "properties": {"norad_id": 49008, "name": "FENGYUN 3E", "group": "weather", "lat": -2.17399930338303, "lon": 160.2118611190498, "alt_km": 829.272426492972, "timestamp": "2025-12-05T22:40:48.202774+00:00", "meta": {"OBJECT_NAME": "FENGYUN 3E", "OBJECT_ID": "2021-062A", "EPOCH": "2025-12-05T06:36:14.482368", "MEAN_MOTION": 14.1987851, "ECCENTRICITY": 6.796e-05, "INCLINATION": 98.7476, "RA_OF_ASC_NODE": 339.8849, "ARG_OF_PERICENTER": 314.3589, "MEAN_ANOMALY": 45.7532, "EPHEMERIS_TYPE": 0, "CLASSIFICATION_TYPE": "U", "NORAD_CAT_ID": 49008, "ELEMENT_SET_NO": 999, "REV_AT_EPOCH": 22906, "BSTAR": 5.4351059e-05, "MEAN_MOTION_DOT": 7.1e-07, "MEAN_MOTION_DDOT": 0}, "tle": {"line1": "1 49008U 21062A   25339.27516762  .00000071  00000+0  54351-4 0  9999", "line2": "2 49008  98.7476 339.8849 0000679 314.3589  45.7532 14.19878510229062"}}, "geometry": {"type": "Point", "coordinates": [160.2118611190498, -2.17399930338303]}}, {"type": "Feature", "properties": {"norad_id": 51850, "name": "GOES 18", "group": "weather", "lat": -0.0021652228826928425, "lon": -81.82585549263604, "alt_km": 35782.69149242005, "timestamp": "2025-12-05T22:40:48.202786+00:00", "meta": {"OBJECT_NAME": "GOES 18", "OBJECT_ID": "2022-021A", "EPOCH": "2025-12-05T06:11:46.930848", "MEAN_MOTION": 1.00271222, "ECCENTRICITY": 8.44e-05, "INCLINATION": 0.0092, "RA_OF_ASC_NODE": 79.494, "ARG_OF_PERICENTER": 211.3925, "MEAN_ANOMALY": 99.3729, "EPHEMERIS_TYPE": 0, "CLASSIFICATION_TYPE": "U", "NORAD_CAT_ID": 51850, "ELEMENT_SET_NO": 999, "REV_AT_EPOCH": 464, "BSTAR": 0, "MEAN_MOTION_DOT": 1.08e-06, "MEAN_MOTION_DDOT": 0}, "tle": {"line1": "1 51850U 22021A   25339.25818207  .00000108  00000+0  00000+0 0  9998", "line2": "2 51850   0.0092  79.4940 0000844 211.3925  99.3729  1.00271222  4644"}}, "geometry": {"type": "Point", "coordinates": [-81.82585549263604, -0.0021652228826928425]}}]}